TDRS 3                  
1 19548U 88091B   23018.78907012 -.00000288  00000+0  00000+0 0  9998
2 19548  13.5567 349.6587 0040054 333.9887  29.5139  1.00267617112904
HST                     
1 20580U 90037B   23019.46565347  .00005692  00000+0  31531-3 0  9996
2 20580  28.4681 176.4618 0002150 202.8728 195.6678 15.11684386599183
TDRS 5                  
1 21639U 91054B   23019.13953814  .00000093  00000+0  00000+0 0  9999
2 21639  14.2197   2.9712 0027175 351.7105   6.2283  1.00276595115229
TDRS 6                  
1 22314U 93003B   23019.16548132 -.00000288  00000+0  00000+0 0  9999
2 22314  14.1433   6.2373 0007174 137.2626 348.3084  1.00278780109897
TDRS 7                  
1 23613U 95035B   23018.95903017 -.00000191  00000+0  00000+0 0  9995
2 23613  13.8936 356.9478 0024668  48.9030 142.0671  1.00277526100663
ISS (ZARYA)             
1 25544U 98067A   23019.38502698  .00044714  00000+0  79094-3 0  9997
2 25544  51.6441 345.5952 0005080 248.4872 211.5591 15.49849381378716
LANDSAT 7               
1 25682U 99020A   23019.54597605  .00000784  00000+0  17292-3 0  9991
2 25682  97.9516  64.1371 0001460  95.3230 264.8146 14.59888610264099
TERRA                   
1 25994U 99068A   23019.46858795  .00001028  00000+0  22860-3 0  9999
2 25994  98.1142  91.4269 0002135 140.4000 346.7998 14.58988044228095
TDRS 8                  
1 26388U 00034A   23018.52966067 -.00000225  00000+0  00000+0 0  9997
2 26388  10.7062  41.0606 0020323 328.0463  28.2665  1.00279636 82685
TIMED                   
1 26998U 01055B   23018.86865401  .00002464  00000+0  26497-3 0  9993
2 26998  74.0712 210.3668 0000975 323.3513  36.7601 14.89110517145206
TDRS 9                  
1 27389U 02011A   23018.60000000 -.00000103  00000+0  00000+0 0  9996
2 27389   9.4880  58.5150 0003840 191.4570   1.3680  0.99394258 77940
AQUA                    
1 27424U 02022A   23019.42081649  .00001961  00000+0  44064-3 0  9991
2 27424  98.2720 324.5424 0000622  66.4713  37.4546 14.57602379101689
TDRS 10                 
1 27566U 02055A   23018.76466394  .00000097  00000+0  00000+0 0  9991
2 27566   8.5970  48.7371 0006786 312.5386 220.7147  1.00272403 73745
SORCE                   
1 27651U 03004A   23019.45759304  .00004431  00000+0  45536-3 0  9997
2 27651  39.9955  90.8022 0022296 195.2157 164.7964 14.90724468 85325
AURA                    
1 28376U 04026A   23018.84432091  .00002085  00000+0  47265-3 0  9994
2 28376  98.2340 324.3272 0001307  87.7426 272.3922 14.57114327984599
SWIFT                   
1 28485U 04047A   23018.89735382  .00010180  00000+0  60927-3 0  9997
2 28485  20.5560 236.2612 0010014 151.9244 208.1732 15.08220004996178
THEMIS A                
1 30580U 07004A   23018.26870130 -.00000231  00000+0 -49294-1 0  9994
2 30580  12.3030 321.7222 8355074 211.0464 230.6338  0.87832774 30325
THEMIS D                
1 30797U 07004D   23018.30715344 -.00000090  00000+0  00000+0 0  9996
2 30797   8.3017 309.3556 8305499 226.7846 255.3587  0.87834966 30123
THEMIS E                
1 30798U 07004E   23019.10267333 -.00000097  00000+0  00000+0 0  9993
2 30798   9.4900 325.9963 8303013 212.1221 140.5059  0.87858893 54961
AIM                     
1 31304U 07015A   23018.79204826  .00029873  00000+0  12919-2 0  9998
2 31304  97.8629 311.6776 0004376  23.2349 336.9083 15.22398563863898
FGRST (GLAST)           
1 33053U 08029A   23018.64332702  .00004432  00000+0  22767-3 0  9993
2 33053  25.5818 139.0804 0012010 152.6732 207.4437 15.12962999806318
WISE                    
1 36119U 09071A   23019.10057055  .00017849  00000+0  49519-3 0  9994
2 36119  97.2172  54.3438 0000744 195.2296 164.8926 15.36974348728605
TDRS 11                 
1 39070U 13004A   23019.23811477  .00000096  00000+0  00000+0 0  9998
2 39070   2.7715 352.8300 0003857  41.2392 355.5539  1.00270238 36500
TDRS 12                 
1 39504U 14004A   23018.86227709 -.00000250  00000+0  00000+0 0  9991
2 39504   3.6993 351.4441 0000767 227.0734 168.8922  1.00275786 31792
GPM-CORE                
1 39574U 14009C   23019.13974120  .00024843  00000+0  35972-3 0  9993
2 39574  64.9966 174.1461 0012582 261.4998  98.4722 15.55758728505174
MMS 1                   
1 40482U 15011A   23017.89922791 -.00001578  00000+0  00000+0 0  9996
2 40482  29.4405  86.4643 8943328  73.3068 111.1952  0.28541986 13916
MMS 2                   
1 40483U 15011B   23017.91589457 -.00001581  00000+0  00000+0 0  9992
2 40483  29.4288  86.3860 8940445  73.3697 112.9057  0.28542320 13975
MMS 3                   
1 40484U 15011C   23017.91589457 -.00001581  00000+0  00000+0 0  9993
2 40484  29.4320  86.4489 8942850  73.3136 112.9224  0.28542246 13659
MMS 4                   
1 40485U 15011D   23017.91589457 -.00001581  00000+0  00000+0 0  9994
2 40485  29.4404  86.4473 8940826  73.3178 112.9253  0.28540392 13868
TDRS 13                 
1 42915U 17047A   23019.22683328 -.00000082  00000+0  00000+0 0  9998
2 42915   4.1856 335.8145 0013646 110.0216 102.5407  1.00271067 19897
JPSS-1                  
1 43013U 17073A   23019.54033212  .00000192  00000+0  11194-3 0  9994
2 43013  98.7394 319.9158 0001426 105.4850 254.6484 14.19547386267887
